{"type": "FeatureCollection", "features": [ {"type": "Feature", "properties": {"norad_id": 66839, "name": "STARLINK-35717", "group": "last-30-days", "lat": -5.225825081705995, "lon": 158.01744344005397, "alt_km": 411.73428816406886, "timestamp": "2025-12-26T18:39:30.997950+00:00", "meta": {"OBJECT_NAME": "STARLINK-35717", "OBJECT_ID": "2025-280U", "EPOCH": "2025-12-26T14:02:37.112928", "MEAN_MOTION": 15.5255128, "ECCENTRICITY": 0.00034828, "INCLINATION": 70.0008, "RA_OF_ASC_NODE": 160.4529, "ARG_OF_PERICENTER": 278.8065, "MEAN_ANOMALY": 81.2727, "EPHEMERIS_TYPE": 0, "CLASSIFICATION_TYPE": "U", "NORAD_CAT_ID": 66839, "ELEMENT_SET_NO": 999, "REV_AT_EPOCH": 508, "BSTAR": 0.00162338, "MEAN_MOTION_DOT": 0.00101103, "MEAN_MOTION_DDOT": 0}, "tle": {"line1": "1 66839U 25280U   25360.58515177  .00101103  00000+0  16234-2 0  9997", "line2": "2 66839  70.0008 160.4529 0003482 278.8065  81.2727 15.52551280  5083"}}, "geometry": {"type": "Point", "coordinates": [158.01744344005397, -5.225825081705995]}}, {"type": "Feature", "properties": {"norad_id": 66840, "name": "STARLINK-35837", "group": "last-30-days", "lat": -1.3428881895513933, "lon": 159.4338524668786, "alt_km": 411.295514251231, "timestamp": "2025-12-26T18:39:30.997960+00:00", "meta": {"OBJECT_NAME": "STARLINK-35837", "OBJECT_ID": "2025-280V", "EPOCH": "2025-12-25T22:33:49.877568", "MEAN_MOTION": 15.52554783, "ECCENTRICITY": 0.00033359, "INCLINATION": 70.0008, "RA_OF_ASC_NODE": 162.2157, "ARG_OF_PERICENTER": 274.4565, "MEAN_ANOMALY": 85.6241, "EPHEMERIS_TYPE": 0, "CLASSIFICATION_TYPE": "U", "NORAD_CAT_ID": 66840, "ELEMENT_SET_NO": 999, "REV_AT_EPOCH": 498, "BSTAR": 0.0015173185, "MEAN_MOTION_DOT": 0.00094417, "MEAN_MOTION_DDOT": 0}, "tle": {"line1": "1 66840U 25280V   25359.94016062  .00094417  00000+0  15173-2 0  9996", "line2": "2 66840  70.0008 162.2157 0003335 274.4565  85.6241 15.52554783  4984"}}, "geometry": {"type": "Point", "coordinates": [159.4338524668786, -1.3428881895513933]}}, {"type": "Feature", "properties": {"norad_id": 66841, "name": "STARLINK-35715", "group": "last-30-days", "lat": 0.5245171104344571, "lon": 160.11189108905387, "alt_km": 411.15264122128156, "timestamp": "2025-12-26T18:39:30.997969+00:00", "meta": {"OBJECT_NAME": "STARLINK-35715", "OBJECT_ID": "2025-280W", "EPOCH": "2025-12-25T17:54:59.759136", "MEAN_MOTION": 15.52550254, "ECCENTRICITY": 0.00033851, "INCLINATION": 70.0008, "RA_OF_ASC_NODE": 162.7437, "ARG_OF_PERICENTER": 274.3901, "MEAN_ANOMALY": 85.6899, "EPHEMERIS_TYPE": 0, "CLASSIFICATION_TYPE": "U", "NORAD_CAT_ID": 66841, "ELEMENT_SET_NO": 999, "REV_AT_EPOCH": 495, "BSTAR": 0.0012511653, "MEAN_MOTION_DOT": 0.00077649, "MEAN_MOTION_DDOT": 0}, "tle": {"line1": "1 66841U 25280W   25359.74652499  .00077649  00000+0  12512-2 0  9997", "line2": "2 66841  70.0008 162.7437 0003385 274.3901  85.6899 15.52550254  4954"}}, "geometry": {"type": "Point", "coordinates": [160.11189108905387, 0.5245171104344571]}}, {"type": "Feature", "properties": {"norad_id": 66842, "name": "STARLINK-35769", "group": "last-30-days", "lat": 2.4136213798432014, "lon": 160.79842280394112, "alt_km": 410.84423097893796, "timestamp": "2025-12-26T18:39:30.997979+00:00", "meta": {"OBJECT_NAME": "STARLINK-35769", "OBJECT_ID": "2025-280X", "EPOCH": "2025-12-25T16:21:43.530048", "MEAN_MOTION": 15.52546492, "ECCENTRICITY": 0.00031597, "INCLINATION": 70.0007, "RA_OF_ASC_NODE": 162.9191, "ARG_OF_PERICENTER": 274.6719, "MEAN_ANOMALY": 85.4107, "EPHEMERIS_TYPE": 0, "CLASSIFICATION_TYPE": "U", "NORAD_CAT_ID": 66842, "ELEMENT_SET_NO": 999, "REV_AT_EPOCH": 494, "BSTAR": 0.0015378743, "MEAN_MOTION_DOT": 0.00095683, "MEAN_MOTION_DDOT": 0}, "tle": {"line1": "1 66842U 25280X   25359.68175382  .00095683  00000+0  15379-2 0  9994", "line2": "2 66842  70.0007 162.9191 0003159 274.6719  85.4107 15.52546492  4940"}}, "geometry": {"type": "Point", "coordinates": [160.79842280394112, 2.4136213798432014]}}, {"type": "Feature", "properties": {"norad_id": 66843, "name": "STARLINK-35997", "group": "last-30-days", "lat": 5.583316619400893, "lon": 161.95290321460598, "alt_km": 410.69400307613523, "timestamp": "2025-12-26T18:39:30.997989+00:00", "meta": {"OBJECT_NAME": "STARLINK-35997", "OBJECT_ID": "2025-280Y", "EPOCH": "2025-12-26T13:59:39.310368", "MEAN_MOTION": 15.52554863, "ECCENTRICITY": 0.00034117, "INCLINATION": 70.0008, "RA_OF_ASC_NODE": 160.4446, "ARG_OF_PERICENTER": 280.8322, "MEAN_ANOMALY": 79.2481, "EPHEMERIS_TYPE": 0, "CLASSIFICATION_TYPE": "U", "NORAD_CAT_ID": 66843, "ELEMENT_SET_NO": 999, "REV_AT_EPOCH": 508, "BSTAR": 0.0017221866, "MEAN_MOTION_DOT": 0.00107364, "MEAN_MOTION_DDOT": 0}, "tle": {"line1": "1 66843U 25280Y   25360.58309387  .00107364  00000+0  17222-2 0  9999", "line2": "2 66843  70.0008 160.4446 0003411 280.8322  79.2481 15.52554863  5081"}}, "geometry": {"type": "Point", "coordinates": [161.95290321460598, 5.583316619400893]}}, {"type": "Feature", "properties": {"norad_id": 66844, "name": "STARLINK-36073", "group": "last-30-days", "lat": 3.7504296849877097, "lon": 161.28248712275627, "alt_km": 411.3939614740402, "timestamp": "2025-12-26T18:39:30.998002+00:00", "meta": {"OBJECT_NAME": "STARLINK-36073", "OBJECT_ID": "2025-280Z", "EPOCH": "2025-12-26T08:00:01.000224", "MEAN_MOTION": 15.52420843, "ECCENTRICITY": 0.00034234, "INCLINATION": 70.0004, "RA_OF_ASC_NODE": 161.1302, "ARG_OF_PERICENTER": 270.9014, "MEAN_ANOMALY": 131.8672, "EPHEMERIS_TYPE": 0, "CLASSIFICATION_TYPE": "U", "NORAD_CAT_ID": 66844, "ELEMENT_SET_NO": 999, "REV_AT_EPOCH": 508, "BSTAR": 0.0025125056, "MEAN_MOTION_DOT": 0.00156941, "MEAN_MOTION_DDOT": 0}, "tle": {"line1": "1 66844U 25280Z   25360.33334491  .00156941  00000+0  25125-2 0  9993", "line2": "2 66844  70.0004 161.1302 0003423 270.9014 131.8672 15.52420843  5085"}}, "geometry": {"type": "Point", "coordinates": [161.28248712275627, 3.7504296849877097]}}, {"type": "Feature", "properties": {"norad_id": 66845, "name": "STARLINK-36068", "group": "last-30-days", "lat": 11.01462238311054, "lon": 163.97116729054102, "alt_km": 410.4214278246218, "timestamp": "2025-12-26T18:39:30.998014+00:00", "meta": {"OBJECT_NAME": "STARLINK-36068", "OBJECT_ID": "2025-280AA", "EPOCH": "2025-12-26T13:58:09.972768", "MEAN_MOTION": 15.52570948, "ECCENTRICITY": 0.000371, "INCLINATION": 70.001, "RA_OF_ASC_NODE": 160.4409, "ARG_OF_PERICENTER": 273.8275, "MEAN_ANOMALY": 86.2488, "EPHEMERIS_TYPE": 0, "CLASSIFICATION_TYPE": "U", "NORAD_CAT_ID": 66845, "ELEMENT_SET_NO": 999, "REV_AT_EPOCH": 508, "BSTAR": 0.0014559512, "MEAN_MOTION_DOT": 0.00090604, "MEAN_MOTION_DDOT": 0}, "tle": {"line1": "1 66845U 25280AA  25360.58205987  .00090604  00000+0  14560-2 0  9992", "line2": "2 66845  70.0010 160.4409 0003710 273.8275  86.2488 15.52570948  5083"}}, "geometry": {"type": "Point", "coordinates": [163.97116729054102, 11.01462238311054]}}, {"type": "Feature", "properties": {"norad_id": 66846, "name": "STARLINK-36055", "group": "last-30-days", "lat": 7.400781959339021, "lon": 162.62324202370795, "alt_km": 410.9937602423106, "timestamp": "2025-12-26T18:39:30.998024+00:00", "meta": {"OBJECT_NAME": "STARLINK-36055", "OBJECT_ID": "2025-280AB", "EPOCH": "2025-12-25T17:53:01.855968", "MEAN_MOTION": 15.52504965, "ECCENTRICITY": 0.00033929, "INCLINATION": 70.001, "RA_OF_ASC_NODE": 162.7379, "ARG_OF_PERICENTER": 270.6917, "MEAN_ANOMALY": 89.3881, "EPHEMERIS_TYPE": 0, "CLASSIFICATION_TYPE": "U", "NORAD_CAT_ID": 66846, "ELEMENT_SET_NO": 999, "REV_AT_EPOCH": 495, "BSTAR": 0.00066927244, "MEAN_MOTION_DOT": 0.000412, "MEAN_MOTION_DDOT": 0}, "tle": {"line1": "1 66846U 25280AB  25359.74516037  .00041200  00000+0  66927-3 0  9993", "line2": "2 66846  70.0010 162.7379 0003392 270.6917  89.3881 15.52504965  4951"}}, "geometry": {"type": "Point", "coordinates": [162.62324202370795, 7.400781959339021]}}, {"type": "Feature", "properties": {"norad_id": 66847, "name": "STARLINK-36061", "group": "last-30-days", "lat": 9.182617184861705, "lon": 163.28342656624773, "alt_km": 410.5977278081691, "timestamp": "2025-12-26T18:39:30.998034+00:00", "meta": {"OBJECT_NAME": "STARLINK-36061", "OBJECT_ID": "2025-280AC", "EPOCH": "2025-12-26T13:58:39.905184", "MEAN_MOTION": 15.52548932, "ECCENTRICITY": 0.00033712, "INCLINATION": 70.0009, "RA_OF_ASC_NODE": 160.4421, "ARG_OF_PERICENTER": 275.4132, "MEAN_ANOMALY": 84.667, "EPHEMERIS_TYPE": 0, "CLASSIFICATION_TYPE": "U", "NORAD_CAT_ID": 66847, "ELEMENT_SET_NO": 999, "REV_AT_EPOCH": 508, "BSTAR": 0.0012457285, "MEAN_MOTION_DOT": 0.00077303, "MEAN_MOTION_DDOT": 0}, "tle": {"line1": "1 66847U 25280AC  25360.58240631  .00077303  00000+0  12457-2 0  9993", "line2": "2 66847  70.0009 160.4421 0003371 275.4132  84.6670 15.52548932  5083"}}, "geometry": {"type": "Point", "coordinates": [163.28342656624773, 9.182617184861705]}}, {"type": "Feature", "properties": {"norad_id": 66848, "name": "STARLINK-36091", "group": "last-30-days", "lat": 18.912610918590538, "lon": -164.00199046368772, "alt_km": 412.39586447724287, "timestamp": "2025-12-26T18:39:30.998044+00:00", "meta": {"OBJECT_NAME": "STARLINK-36091", "OBJECT_ID": "2025-281A", "EPOCH": "2025-12-26T14:00:04.000032", "MEAN_MOTION": 15.50564155, "ECCENTRICITY": 0.00011152, "INCLINATION": 43.0004, "RA_OF_ASC_NODE": 38.7057, "ARG_OF_PERICENTER": 266.6114, "MEAN_ANOMALY": 240.3749, "EPHEMERIS_TYPE": 0, "CLASSIFICATION_TYPE": "U", "NORAD_CAT_ID": 66848, "ELEMENT_SET_NO": 999, "REV_AT_EPOCH": 361, "BSTAR": 0.00041437084, "MEAN_MOTION_DOT": 0.00024029, "MEAN_MOTION_DDOT": 0}, "tle": {"line1": "1 66848U 25281A   25360.58337963  .00024029  00000+0  41437-3 0  9998", "line2": "2 66848  43.0004  38.7057 0001115 266.6114 240.3749 15.50564155  3615"}}, "geometry": {"type": "Point", "coordinates": [-164.00199046368772, 18.912610918590538]}}]}